[{"OBJECT_NAME":"STARLINK-32817","OBJECT_ID":"2025-037C","EPOCH":"2026-03-09T22:51:34.589952","MEAN_MOTION":14.98326829,"ECCENTRICITY":0.00027671,"INCLINATION":70.0031,"RA_OF_ASC_NODE":353.7002,"ARG_OF_PERICENTER":263.1614,"MEAN_ANOMALY":96.923,"EPHEMERIS_TYPE":0,"CLASSIFICATION_TYPE":"U","NORAD_CAT_ID":63079,"ELEMENT_SET_NO":999,"REV_AT_EPOCH":5863,"BSTAR":0.00023347418,"MEAN_MOTION_DOT":2.694e-5,"MEAN_MOTION_DDOT":0},{"OBJECT_NAME":"CZ-6A DEB","OBJECT_ID":"2024-140JB","EPOCH":"2026-03-09T22:07:15.667968","MEAN_MOTION":14.69602052,"ECCENTRICITY":0.01342116,"INCLINATION":88.72,"RA_OF_ASC_NODE":261.6605,"ARG_OF_PERICENTER":139.244,"MEAN_ANOMALY":221.8914,"EPHEMERIS_TYPE":0,"CLASSIFICATION_TYPE":"U","NORAD_CAT_ID":60848,"ELEMENT_SET_NO":999,"REV_AT_EPOCH":8242,"BSTAR":0.0030457487,"MEAN_MOTION_DOT":0.00020848,"MEAN_MOTION_DDOT":0}]
